{"type": "FeatureCollection", "features": [ {"type": "Feature", "properties": {"norad_id": 42987, "name": "SKYSAT-C11", "group": "resource", "lat": 82.54694388676663, "lon": 43.292546189557406, "alt_km": 414.15028303378494, "timestamp": "2025-12-26T20:30:45.591267+00:00", "meta": {"OBJECT_NAME": "SKYSAT-C11", "OBJECT_ID": "2017-068A", "EPOCH": "2025-12-26T15:28:06.129696", "MEAN_MOTION": 15.48052469, "ECCENTRICITY": 0.00011424, "INCLINATION": 97.415, "RA_OF_ASC_NODE": 138.4858, "ARG_OF_PERICENTER": 94.6994, "MEAN_ANOMALY": 265.4386, "EPHEMERIS_TYPE": 0, "CLASSIFICATION_TYPE": "U", "NORAD_CAT_ID": 42987, "ELEMENT_SET_NO": 999, "REV_AT_EPOCH": 45646, "BSTAR": 0.00044126098, "MEAN_MOTION_DOT": 0.00023044, "MEAN_MOTION_DDOT": 0}, "tle": {"line1": "1 42987U 17068A   25360.64451539  .00023044  00000+0  44126-3 0  9997", "line2": "2 42987  97.4150 138.4858 0001142  94.6994 265.4386 15.48052469456467"}}, "geometry": {"type": "Point", "coordinates": [43.292546189557406, 82.54694388676663]}}, {"type": "Feature", "properties": {"norad_id": 42988, "name": "SKYSAT-C10", "group": "resource", "lat": 78.51211903070666, "lon": -8.32834530241328, "alt_km": 460.69574058062153, "timestamp": "2025-12-26T20:30:45.591276+00:00", "meta": {"OBJECT_NAME": "SKYSAT-C10", "OBJECT_ID": "2017-068B", "EPOCH": "2025-12-26T07:32:29.639616", "MEAN_MOTION": 15.31865933, "ECCENTRICITY": 0.00035329, "INCLINATION": 97.4259, "RA_OF_ASC_NODE": 131.2058, "ARG_OF_PERICENTER": 75.9386, "MEAN_ANOMALY": 284.2248, "EPHEMERIS_TYPE": 0, "CLASSIFICATION_TYPE": "U", "NORAD_CAT_ID": 42988, "ELEMENT_SET_NO": 999, "REV_AT_EPOCH": 45587, "BSTAR": 0.00043148075, "MEAN_MOTION_DOT": 0.00013208, "MEAN_MOTION_DDOT": 0}, "tle": {"line1": "1 42988U 17068B   25360.31423194  .00013208  00000+0  43148-3 0  9992", "line2": "2 42988  97.4259 131.2058 0003532  75.9386 284.2248 15.31865933455873"}}, "geometry": {"type": "Point", "coordinates": [-8.32834530241328, 78.51211903070666]}}, {"type": "Feature", "properties": {"norad_id": 42989, "name": "SKYSAT-C9", "group": "resource", "lat": 25.167597310987922, "lon": -45.26646850058145, "alt_km": 458.72715704113034, "timestamp": "2025-12-26T20:30:45.591285+00:00", "meta": {"OBJECT_NAME": "SKYSAT-C9", "OBJECT_ID": "2017-068C", "EPOCH": "2025-12-26T08:54:05.306400", "MEAN_MOTION": 15.36395186, "ECCENTRICITY": 0.00101854, "INCLINATION": 97.4193, "RA_OF_ASC_NODE": 130.7353, "ARG_OF_PERICENTER": 43.9303, "MEAN_ANOMALY": 316.2749, "EPHEMERIS_TYPE": 0, "CLASSIFICATION_TYPE": "U", "NORAD_CAT_ID": 42989, "ELEMENT_SET_NO": 999, "REV_AT_EPOCH": 45617, "BSTAR": 0.00038181732, "MEAN_MOTION_DOT": 0.00013502, "MEAN_MOTION_DDOT": 0}, "tle": {"line1": "1 42989U 17068C   25360.37089475  .00013502  00000+0  38182-3 0  9998", "line2": "2 42989  97.4193 130.7353 0010185  43.9303 316.2749 15.36395186456178"}}, "geometry": {"type": "Point", "coordinates": [-45.26646850058145, 25.167597310987922]}}, {"type": "Feature", "properties": {"norad_id": 42990, "name": "SKYSAT-C8", "group": "resource", "lat": -34.47276689291974, "lon": 136.05882914383696, "alt_km": 472.25011519642703, "timestamp": "2025-12-26T20:30:45.591295+00:00", "meta": {"OBJECT_NAME": "SKYSAT-C8", "OBJECT_ID": "2017-068D", "EPOCH": "2025-12-26T14:23:55.826880", "MEAN_MOTION": 15.33228179, "ECCENTRICITY": 9.515e-05, "INCLINATION": 97.4287, "RA_OF_ASC_NODE": 130.6632, "ARG_OF_PERICENTER": 257.2238, "MEAN_ANOMALY": 102.8898, "EPHEMERIS_TYPE": 0, "CLASSIFICATION_TYPE": "U", "NORAD_CAT_ID": 42990, "ELEMENT_SET_NO": 999, "REV_AT_EPOCH": 45583, "BSTAR": 0.0003895194, "MEAN_MOTION_DOT": 0.00012433, "MEAN_MOTION_DDOT": 0}, "tle": {"line1": "1 42990U 17068D   25360.59995170  .00012433  00000+0  38952-3 0  9999", "line2": "2 42990  97.4287 130.6632 0000951 257.2238 102.8898 15.33228179455830"}}, "geometry": {"type": "Point", "coordinates": [136.05882914383696, -34.47276689291974]}}, {"type": "Feature", "properties": {"norad_id": 42991, "name": "SKYSAT-C7", "group": "resource", "lat": 29.321137229429816, "lon": -43.84778753169641, "alt_km": 470.14431257360775, "timestamp": "2025-12-26T20:30:45.591304+00:00", "meta": {"OBJECT_NAME": "SKYSAT-C7", "OBJECT_ID": "2017-068E", "EPOCH": "2025-12-26T08:53:26.128320", "MEAN_MOTION": 15.32615619, "ECCENTRICITY": 0.00067856, "INCLINATION": 97.4296, "RA_OF_ASC_NODE": 131.4629, "ARG_OF_PERICENTER": 13.3039, "MEAN_ANOMALY": 346.838, "EPHEMERIS_TYPE": 0, "CLASSIFICATION_TYPE": "U", "NORAD_CAT_ID": 42991, "ELEMENT_SET_NO": 999, "REV_AT_EPOCH": 45586, "BSTAR": 0.00036174908, "MEAN_MOTION_DOT": 0.00011327, "MEAN_MOTION_DDOT": 0}, "tle": {"line1": "1 42991U 17068E   25360.37044130  .00011327  00000+0  36175-3 0  9993", "line2": "2 42991  97.4296 131.4629 0006785  13.3039 346.8380 15.32615619455864"}}, "geometry": {"type": "Point", "coordinates": [-43.84778753169641, 29.321137229429816]}}, {"type": "Feature", "properties": {"norad_id": 42992, "name": "SKYSAT-C6", "group": "resource", "lat": -44.096074029088996, "lon": -54.891098592011936, "alt_km": 480.505056171105, "timestamp": "2025-12-26T20:30:45.591313+00:00", "meta": {"OBJECT_NAME": "SKYSAT-C6", "OBJECT_ID": "2017-068F", "EPOCH": "2025-12-25T20:01:06.090528", "MEAN_MOTION": 15.31757076, "ECCENTRICITY": 0.00047376, "INCLINATION": 97.4326, "RA_OF_ASC_NODE": 131.3522, "ARG_OF_PERICENTER": 46.8398, "MEAN_ANOMALY": 313.3239, "EPHEMERIS_TYPE": 0, "CLASSIFICATION_TYPE": "U", "NORAD_CAT_ID": 42992, "ELEMENT_SET_NO": 999, "REV_AT_EPOCH": 45576, "BSTAR": 0.00037471515, "MEAN_MOTION_DOT": 0.0001142, "MEAN_MOTION_DDOT": 0}, "tle": {"line1": "1 42992U 17068F   25359.83409827  .00011420  00000+0  37472-3 0  9996", "line2": "2 42992  97.4326 131.3522 0004737  46.8398 313.3239 15.31757076455768"}}, "geometry": {"type": "Point", "coordinates": [-54.891098592011936, -44.096074029088996]}}, {"type": "Feature", "properties": {"norad_id": 43111, "name": "CARTOSAT-2F", "group": "resource", "lat": 61.87373116988073, "lon": 44.13338077564779, "alt_km": 501.3110475458752, "timestamp": "2025-12-26T20:30:45.591322+00:00", "meta": {"OBJECT_NAME": "CARTOSAT-2F", "OBJECT_ID": "2018-004A", "EPOCH": "2025-12-26T15:29:42.401760", "MEAN_MOTION": 15.19263763, "ECCENTRICITY": 0.00015183, "INCLINATION": 97.4292, "RA_OF_ASC_NODE": 58.057, "ARG_OF_PERICENTER": 107.7284, "MEAN_ANOMALY": 252.4116, "EPHEMERIS_TYPE": 0, "CLASSIFICATION_TYPE": "U", "NORAD_CAT_ID": 43111, "ELEMENT_SET_NO": 999, "REV_AT_EPOCH": 44113, "BSTAR": 0.00040310686, "MEAN_MOTION_DOT": 8.435e-05, "MEAN_MOTION_DDOT": 0}, "tle": {"line1": "1 43111U 18004A   25360.64562965  .00008435  00000+0  40311-3 0  9993", "line2": "2 43111  97.4292  58.0570 0001518 107.7284 252.4116 15.19263763441131"}}, "geometry": {"type": "Point", "coordinates": [44.13338077564779, 61.87373116988073]}}, {"type": "Feature", "properties": {"norad_id": 43259, "name": "GAOFEN-1 02", "group": "resource", "lat": 2.624066803851564, "lon": -120.97947753280033, "alt_km": 641.3713935273881, "timestamp": "2025-12-26T20:30:45.591331+00:00", "meta": {"OBJECT_NAME": "GAOFEN-1 02", "OBJECT_ID": "2018-031A", "EPOCH": "2025-12-26T14:49:58.839168", "MEAN_MOTION": 14.76445769, "ECCENTRICITY": 0.00026912, "INCLINATION": 98.0783, "RA_OF_ASC_NODE": 58.4109, "ARG_OF_PERICENTER": 166.9055, "MEAN_ANOMALY": 193.2225, "EPHEMERIS_TYPE": 0, "CLASSIFICATION_TYPE": "U", "NORAD_CAT_ID": 43259, "ELEMENT_SET_NO": 999, "REV_AT_EPOCH": 41723, "BSTAR": 0.00023057176, "MEAN_MOTION_DOT": 1.552e-05, "MEAN_MOTION_DDOT": 0}, "tle": {"line1": "1 43259U 18031A   25360.61804212  .00001552  00000+0  23057-3 0  9998", "line2": "2 43259  98.0783  58.4109 0002691 166.9055 193.2225 14.76445769417231"}}, "geometry": {"type": "Point", "coordinates": [-120.97947753280033, 2.624066803851564]}}, {"type": "Feature", "properties": {"norad_id": 43260, "name": "GAOFEN-1 03", "group": "resource", "lat": -65.3973158742569, "lon": 76.5927677457569, "alt_km": 646.9980696282519, "timestamp": "2025-12-26T20:30:45.591340+00:00", "meta": {"OBJECT_NAME": "GAOFEN-1 03", "OBJECT_ID": "2018-031B", "EPOCH": "2025-12-26T14:18:29.257344", "MEAN_MOTION": 14.76426893, "ECCENTRICITY": 0.00016534, "INCLINATION": 98.0779, "RA_OF_ASC_NODE": 58.265, "ARG_OF_PERICENTER": 251.4622, "MEAN_ANOMALY": 108.6408, "EPHEMERIS_TYPE": 0, "CLASSIFICATION_TYPE": "U", "NORAD_CAT_ID": 43260, "ELEMENT_SET_NO": 999, "REV_AT_EPOCH": 41722, "BSTAR": 0.0001627175, "MEAN_MOTION_DOT": 1.08e-05, "MEAN_MOTION_DDOT": 0}, "tle": {"line1": "1 43260U 18031B   25360.59617196  .00001080  00000+0  16272-3 0  9997", "line2": "2 43260  98.0779  58.2650 0001653 251.4622 108.6408 14.76426893417223"}}, "geometry": {"type": "Point", "coordinates": [76.5927677457569, -65.3973158742569]}}, {"type": "Feature", "properties": {"norad_id": 43262, "name": "GAOFEN-1 04", "group": "resource", "lat": 61.174650596846924, "lon": 43.737511244811415, "alt_km": 634.3103854720175, "timestamp": "2025-12-26T20:30:45.591349+00:00", "meta": {"OBJECT_NAME": "GAOFEN-1 04", "OBJECT_ID": "2018-031D", "EPOCH": "2025-12-26T15:21:08.079840", "MEAN_MOTION": 14.76434157, "ECCENTRICITY": 4.897e-05, "INCLINATION": 98.0784, "RA_OF_ASC_NODE": 58.4789, "ARG_OF_PERICENTER": 63.0256, "MEAN_ANOMALY": 297.1003, "EPHEMERIS_TYPE": 0, "CLASSIFICATION_TYPE": "U", "NORAD_CAT_ID": 43262, "ELEMENT_SET_NO": 999, "REV_AT_EPOCH": 41722, "BSTAR": 0.00013983181, "MEAN_MOTION_DOT": 9.21e-06, "MEAN_MOTION_DDOT": 0}, "tle": {"line1": "1 43262U 18031D   25360.63967685  .00000921  00000+0  13983-3 0  9994", "line2": "2 43262  98.0784  58.4789 0000489  63.0256 297.1003 14.76434157417229"}}, "geometry": {"type": "Point", "coordinates": [43.737511244811415, 61.174650596846924]}}]}